[{"OBJECT_NAME":"STARLINK-4148","OBJECT_ID":"2022-086BD","EPOCH":"2026-03-09T13:16:38.488800","MEAN_MOTION":15.08843952,"ECCENTRICITY":9.544e-5,"INCLINATION":53.2179,"RA_OF_ASC_NODE":174.7206,"ARG_OF_PERICENTER":100.9938,"MEAN_ANOMALY":259.1161,"EPHEMERIS_TYPE":0,"CLASSIFICATION_TYPE":"U","NORAD_CAT_ID":53293,"ELEMENT_SET_NO":999,"REV_AT_EPOCH":20130,"BSTAR":4.984367e-6,"MEAN_MOTION_DOT":-2.08e-6,"MEAN_MOTION_DDOT":0},{"OBJECT_NAME":"STEP 2","OBJECT_ID":"1994-029A","EPOCH":"2026-03-09T19:35:47.124096","MEAN_MOTION":14.90069818,"ECCENTRICITY":0.0082455,"INCLINATION":81.9356,"RA_OF_ASC_NODE":275.268,"ARG_OF_PERICENTER":225.1907,"MEAN_ANOMALY":134.2589,"EPHEMERIS_TYPE":0,"CLASSIFICATION_TYPE":"U","NORAD_CAT_ID":23105,"ELEMENT_SET_NO":999,"REV_AT_EPOCH":70508,"BSTAR":0.00037800709,"MEAN_MOTION_DOT":3.917e-5,"MEAN_MOTION_DDOT":0}]
